[{"OBJECT_NAME":"ONEWEB-0659","OBJECT_ID":"2022-166AN","EPOCH":"2025-10-30T04:50:32.539200","MEAN_MOTION":13.21831499,"ECCENTRICITY":0.00016354,"INCLINATION":87.9169,"RA_OF_ASC_NODE":289.8778,"ARG_OF_PERICENTER":77.6578,"MEAN_ANOMALY":282.4739,"EPHEMERIS_TYPE":0,"CLASSIFICATION_TYPE":"U","NORAD_CAT_ID":54678,"ELEMENT_SET_NO":999,"REV_AT_EPOCH":14114,"BSTAR":-0.0016205884,"MEAN_MOTION_DOT":-6.56e-6,"MEAN_MOTION_DDOT":0},{"OBJECT_NAME":"ONEWEB-0685","OBJECT_ID":"2022-166AP","EPOCH":"2025-10-30T01:13:32.002176","MEAN_MOTION":13.21830024,"ECCENTRICITY":0.00015928,"INCLINATION":87.9166,"RA_OF_ASC_NODE":289.9036,"ARG_OF_PERICENTER":86.6842,"MEAN_ANOMALY":273.4474,"EPHEMERIS_TYPE":0,"CLASSIFICATION_TYPE":"U","NORAD_CAT_ID":54679,"ELEMENT_SET_NO":999,"REV_AT_EPOCH":14101,"BSTAR":-0.0003021009,"MEAN_MOTION_DOT":-1.12e-6,"MEAN_MOTION_DDOT":0},{"OBJECT_NAME":"ONEWEB-0712","OBJECT_ID":"2022-166AQ","EPOCH":"2025-10-30T04:03:39.685248","MEAN_MOTION":13.16596124,"ECCENTRICITY":0.00017412,"INCLINATION":87.8999,"RA_OF_ASC_NODE":274.5849,"ARG_OF_PERICENTER":101.5796,"MEAN_ANOMALY":258.553,"EPHEMERIS_TYPE":0,"CLASSIFICATION_TYPE":"U","NORAD_CAT_ID":54680,"ELEMENT_SET_NO":999,"REV_AT_EPOCH":14179,"BSTAR":7.0868846e-5,"MEAN_MOTION_DOT":4.0e-7,"MEAN_MOTION_DDOT":0},{"OBJECT_NAME":"ONEWEB-0714","OBJECT_ID":"2022-166AR","EPOCH":"2025-10-30T04:59:58.901568","MEAN_MOTION":13.2182697,"ECCENTRICITY":0.0001704,"INCLINATION":87.9169,"RA_OF_ASC_NODE":289.8663,"ARG_OF_PERICENTER":90.4219,"MEAN_ANOMALY":269.711,"EPHEMERIS_TYPE":0,"CLASSIFICATION_TYPE":"U","NORAD_CAT_ID":54681,"ELEMENT_SET_NO":999,"REV_AT_EPOCH":14115,"BSTAR":0.00012434397,"MEAN_MOTION_DOT":6.4e-7,"MEAN_MOTION_DDOT":0},{"OBJECT_NAME":"ONEWEB-0532","OBJECT_ID":"2023-004A","EPOCH":"2025-10-30T07:50:02.560992","MEAN_MOTION":13.17665737,"ECCENTRICITY":0.00016049,"INCLINATION":87.9125,"RA_OF_ASC_NODE":51.5648,"ARG_OF_PERICENTER":88.2357,"MEAN_ANOMALY":271.8959,"EPHEMERIS_TYPE":0,"CLASSIFICATION_TYPE":"U","NORAD_CAT_ID":55140,"ELEMENT_SET_NO":999,"REV_AT_EPOCH":13731,"BSTAR":0.0049196884,"MEAN_MOTION_DOT":1.924e-5,"MEAN_MOTION_DDOT":0},{"OBJECT_NAME":"ONEWEB-0533","OBJECT_ID":"2023-004B","EPOCH":"2025-10-30T07:08:17.827584","MEAN_MOTION":13.12444777,"ECCENTRICITY":0.00015688,"INCLINATION":87.8971,"RA_OF_ASC_NODE":36.3317,"ARG_OF_PERICENTER":105.8324,"MEAN_ANOMALY":254.2978,"EPHEMERIS_TYPE":0,"CLASSIFICATION_TYPE":"U","NORAD_CAT_ID":55141,"ELEMENT_SET_NO":999,"REV_AT_EPOCH":13790,"BSTAR":-0.00092454546,"MEAN_MOTION_DOT":-3.2e-6,"MEAN_MOTION_DDOT":0},{"OBJECT_NAME":"ONEWEB-0541","OBJECT_ID":"2023-004C","EPOCH":"2025-10-30T07:12:11.155104","MEAN_MOTION":13.11417433,"ECCENTRICITY":0.00016782,"INCLINATION":87.8847,"RA_OF_ASC_NODE":66.8268,"ARG_OF_PERICENTER":95.4221,"MEAN_ANOMALY":264.7098,"EPHEMERIS_TYPE":0,"CLASSIFICATION_TYPE":"U","NORAD_CAT_ID":55142,"ELEMENT_SET_NO":999,"REV_AT_EPOCH":13581,"BSTAR":-0.0012928153,"MEAN_MOTION_DOT":-4.45e-6,"MEAN_MOTION_DDOT":0},{"OBJECT_NAME":"ONEWEB-0543","OBJECT_ID":"2023-004D","EPOCH":"2025-10-30T06:11:33.442080","MEAN_MOTION":13.18685751,"ECCENTRICITY":0.00018854,"INCLINATION":87.9208,"RA_OF_ASC_NODE":21.1679,"ARG_OF_PERICENTER":109.3279,"MEAN_ANOMALY":250.8057,"EPHEMERIS_TYPE":0,"CLASSIFICATION_TYPE":"U","NORAD_CAT_ID":55143,"ELEMENT_SET_NO":999,"REV_AT_EPOCH":13939,"BSTAR":0.00012365285,"MEAN_MOTION_DOT":6.2e-7,"MEAN_MOTION_DDOT":0},{"OBJECT_NAME":"ONEWEB-0544","OBJECT_ID":"2023-004E","EPOCH":"2025-10-30T06:02:03.663456","MEAN_MOTION":13.18685969,"ECCENTRICITY":0.00019892,"INCLINATION":87.921,"RA_OF_ASC_NODE":21.1591,"ARG_OF_PERICENTER":104.8036,"MEAN_ANOMALY":255.3317,"EPHEMERIS_TYPE":0,"CLASSIFICATION_TYPE":"U","NORAD_CAT_ID":55144,"ELEMENT_SET_NO":999,"REV_AT_EPOCH":13939,"BSTAR":0.00010896707,"MEAN_MOTION_DOT":5.6e-7,"MEAN_MOTION_DDOT":0},{"OBJECT_NAME":"ONEWEB-0560","OBJECT_ID":"2023-004F","EPOCH":"2025-10-30T05:52:33.662784","MEAN_MOTION":13.1868653,"ECCENTRICITY":0.00021004,"INCLINATION":87.9219,"RA_OF_ASC_NODE":21.1436,"ARG_OF_PERICENTER":104.3115,"MEAN_ANOMALY":255.8251,"EPHEMERIS_TYPE":0,"CLASSIFICATION_TYPE":"U","NORAD_CAT_ID":55145,"ELEMENT_SET_NO":999,"REV_AT_EPOCH":13940,"BSTAR":0.00023606051,"MEAN_MOTION_DOT":1.06e-6,"MEAN_MOTION_DDOT":0},{"OBJECT_NAME":"ONEWEB-0565","OBJECT_ID":"2023-004G","EPOCH":"2025-10-30T05:43:03.515232","MEAN_MOTION":13.18686639,"ECCENTRICITY":0.00022403,"INCLINATION":87.9211,"RA_OF_ASC_NODE":21.1956,"ARG_OF_PERICENTER":91.6467,"MEAN_ANOMALY":268.4922,"EPHEMERIS_TYPE":0,"CLASSIFICATION_TYPE":"U","NORAD_CAT_ID":55146,"ELEMENT_SET_NO":999,"REV_AT_EPOCH":13939,"BSTAR":0.00012550584,"MEAN_MOTION_DOT":6.2e-7,"MEAN_MOTION_DDOT":0},{"OBJECT_NAME":"ONEWEB-0567","OBJECT_ID":"2023-004H","EPOCH":"2025-10-30T05:33:33.344352","MEAN_MOTION":13.1868702,"ECCENTRICITY":0.00022236,"INCLINATION":87.922,"RA_OF_ASC_NODE":21.1601,"ARG_OF_PERICENTER":97.2198,"MEAN_ANOMALY":262.9187,"EPHEMERIS_TYPE":0,"CLASSIFICATION_TYPE":"U","NORAD_CAT_ID":55147,"ELEMENT_SET_NO":999,"REV_AT_EPOCH":13939,"BSTAR":0.00028512524,"MEAN_MOTION_DOT":1.25e-6,"MEAN_MOTION_DDOT":0},{"OBJECT_NAME":"ONEWEB-0569","OBJECT_ID":"2023-004J","EPOCH":"2025-10-30T04:19:39.686880","MEAN_MOTION":13.13470891,"ECCENTRICITY":0.00028066,"INCLINATION":87.9041,"RA_OF_ASC_NODE":5.918,"ARG_OF_PERICENTER":103.9265,"MEAN_ANOMALY":256.2177,"EPHEMERIS_TYPE":0,"CLASSIFICATION_TYPE":"U","NORAD_CAT_ID":55148,"ELEMENT_SET_NO":999,"REV_AT_EPOCH":13998,"BSTAR":0.0007245854,"MEAN_MOTION_DOT":2.77e-6,"MEAN_MOTION_DDOT":0},{"OBJECT_NAME":"ONEWEB-0570","OBJECT_ID":"2023-004K","EPOCH":"2025-10-30T05:19:18.360192","MEAN_MOTION":13.18686597,"ECCENTRICITY":0.00018394,"INCLINATION":87.9217,"RA_OF_ASC_NODE":21.1622,"ARG_OF_PERICENTER":83.656,"MEAN_ANOMALY":276.4781,"EPHEMERIS_TYPE":0,"CLASSIFICATION_TYPE":"U","NORAD_CAT_ID":55149,"ELEMENT_SET_NO":999,"REV_AT_EPOCH":13938,"BSTAR":-7.8517879e-5,"MEAN_MOTION_DOT":-1.8e-7,"MEAN_MOTION_DDOT":0},{"OBJECT_NAME":"ONEWEB-0571","OBJECT_ID":"2023-004L","EPOCH":"2025-10-30T05:09:48.100320","MEAN_MOTION":13.18688034,"ECCENTRICITY":0.00030261,"INCLINATION":87.9212,"RA_OF_ASC_NODE":21.1654,"ARG_OF_PERICENTER":91.2658,"MEAN_ANOMALY":268.8821,"EPHEMERIS_TYPE":0,"CLASSIFICATION_TYPE":"U","NORAD_CAT_ID":55150,"ELEMENT_SET_NO":999,"REV_AT_EPOCH":13939,"BSTAR":-0.00023086105,"MEAN_MOTION_DOT":-7.8e-7,"MEAN_MOTION_DDOT":0},{"OBJECT_NAME":"ONEWEB-0572","OBJECT_ID":"2023-004M","EPOCH":"2025-10-30T06:44:27.671712","MEAN_MOTION":13.17649022,"ECCENTRICITY":0.00018337,"INCLINATION":87.9131,"RA_OF_ASC_NODE":51.5834,"ARG_OF_PERICENTER":96.1655,"MEAN_ANOMALY":263.9686,"EPHEMERIS_TYPE":0,"CLASSIFICATION_TYPE":"U","NORAD_CAT_ID":55151,"ELEMENT_SET_NO":999,"REV_AT_EPOCH":13720,"BSTAR":0.00022404155,"MEAN_MOTION_DOT":1.0e-6,"MEAN_MOTION_DDOT":0},{"OBJECT_NAME":"ONEWEB-0573","OBJECT_ID":"2023-004N","EPOCH":"2025-10-30T05:00:18.460800","MEAN_MOTION":13.18687162,"ECCENTRICITY":0.00024049,"INCLINATION":87.921,"RA_OF_ASC_NODE":21.1735,"ARG_OF_PERICENTER":83.744,"MEAN_ANOMALY":276.3966,"EPHEMERIS_TYPE":0,"CLASSIFICATION_TYPE":"U","NORAD_CAT_ID":55152,"ELEMENT_SET_NO":999,"REV_AT_EPOCH":13938,"BSTAR":-0.00016247754,"MEAN_MOTION_DOT":-5.1e-7,"MEAN_MOTION_DDOT":0}]
