ONEWEB-0659             
1 54678U 22166AN  25303.20176550 -.00000656  00000+0 -16206-2 0  9991
2 54678  87.9169 289.8778 0001635  77.6578 282.4739 13.21831499141143
ONEWEB-0685             
1 54679U 22166AP  25303.05106484 -.00000112  00000+0 -30210-3 0  9993
2 54679  87.9166 289.9036 0001592  86.6842 273.4474 13.21830024141010
ONEWEB-0712             
1 54680U 22166AQ  25303.16920932  .00000040  00000+0  70869-4 0  9992
2 54680  87.8999 274.5849 0001741 101.5796 258.5530 13.16596124141794
ONEWEB-0714             
1 54681U 22166AR  25303.20832062  .00000064  00000+0  12434-3 0  9993
2 54681  87.9169 289.8663 0001704  90.4219 269.7110 13.21826970141152
ONEWEB-0532             
1 55140U 23004A   25303.32641853  .00001924  00000+0  49197-2 0  9996
2 55140  87.9125  51.5648 0001604  88.2357 271.8959 13.17665737137314
ONEWEB-0533             
1 55141U 23004B   25303.29742856 -.00000320  00000+0 -92455-3 0  9995
2 55141  87.8971  36.3317 0001568 105.8324 254.2978 13.12444777137901
ONEWEB-0541             
1 55142U 23004C   25303.30012911 -.00000445  00000+0 -12928-2 0  9994
2 55142  87.8847  66.8268 0001678  95.4221 264.7098 13.11417433135814
ONEWEB-0543             
1 55143U 23004D   25303.25802595  .00000062  00000+0  12365-3 0  9993
2 55143  87.9208  21.1679 0001885 109.3279 250.8057 13.18685751139390
ONEWEB-0544             
1 55144U 23004E   25303.25143129  .00000056  00000+0  10897-3 0  9996
2 55144  87.9210  21.1591 0001989 104.8036 255.3317 13.18685969139393
ONEWEB-0560             
1 55145U 23004F   25303.24483406  .00000106  00000+0  23606-3 0  9999
2 55145  87.9219  21.1436 0002100 104.3115 255.8251 13.18686530139409
ONEWEB-0565             
1 55146U 23004G   25303.23823513  .00000062  00000+0  12551-3 0  9994
2 55146  87.9211  21.1956 0002240  91.6467 268.4922 13.18686639139395
ONEWEB-0567             
1 55147U 23004H   25303.23163593  .00000125  00000+0  28513-3 0  9995
2 55147  87.9220  21.1601 0002223  97.2198 262.9187 13.18687020139394
ONEWEB-0569             
1 55148U 23004J   25303.18032045  .00000277  00000+0  72459-3 0  9993
2 55148  87.9041   5.9180 0002806 103.9265 256.2177 13.13470891139986
ONEWEB-0570             
1 55149U 23004K   25303.22174028 -.00000018  00000+0 -78518-4 0  9995
2 55149  87.9217  21.1622 0001839  83.6560 276.4781 13.18686597139386
ONEWEB-0571             
1 55150U 23004L   25303.21514005 -.00000078  00000+0 -23086-3 0  9994
2 55150  87.9212  21.1654 0003026  91.2658 268.8821 13.18688034139390
ONEWEB-0572             
1 55151U 23004M   25303.28087583  .00000100  00000+0  22404-3 0  9995
2 55151  87.9131  51.5834 0001833  96.1655 263.9686 13.17649022137209
ONEWEB-0573             
1 55152U 23004N   25303.20854700 -.00000051  00000+0 -16248-3 0  9997
2 55152  87.9210  21.1735 0002404  83.7440 276.3966 13.18687162139388
